NORAD_CAT_ID,OBJECT_NAME,OBJECT_TYPE,EPOCH,MEAN_MOTION,ECCENTRICITY,INCLINATION,RA_OF_ASC_NODE,ARG_OF_PERICENTER,MEAN_ANOMALY,BSTAR,MEAN_MOTION_DOT,MEAN_MOTION_DDOT,TLE_LINE0,TLE_LINE1,TLE_LINE2,SEMIMAJOR_AXIS,PERIOD,APOGEE,PERIGEE,DECAYED
55432.0,STARLINK-5637,PAYLOAD,2023-06-26 03:12:22,14.98331284,0.0003161,70.0003,74.3848,268.355,91.7247,0.00013097,1.47e-05,0.0,0 STARLINK-5637,1 55432U 23014AT  23177.13359659  .00001470  00000-0  13097-3 0  9995,2 55432  70.0003  74.3848 0003161 268.3550  91.7247 14.98331284 22204,6950.189,96.107,574.251,569.857,0.0
55432.0,STARLINK-5637,PAYLOAD,2023-06-26 16:01:27,14.98325269,0.0003129,70.0004,73.0385,268.3402,91.7398,-3.3959e-05,-4.98e-06,0.0,0 STARLINK-5637,1 55432U 23014AT  23177.66768461 -.00000498  00000-0 -33959-4 0  9999,2 55432  70.0004  73.0385 0003129 268.3402  91.7398 14.98325269 22288,6950.208,96.107,574.247,569.898,0.0
55432.0,STARLINK-5637,PAYLOAD,2023-06-27 09:38:56,14.98335654,0.0003025,70.0007,71.1872,270.492,89.5892,-0.00015409,-1.931e-05,0.0,0 STARLINK-5637,1 55432U 23014AT  23178.40204166 -.00001931  00000-0 -15409-3 0  9991,2 55432  70.0007  71.1872 0003025 270.4920  89.5892 14.98335654 22390,6950.175,96.107,574.143,569.938,0.0
55432.0,STARLINK-5637,PAYLOAD,2023-06-28 17:41:37,14.9832685,0.0003009,70.0003,67.8206,269.8975,90.1839,1.9538e-05,1.4e-06,0.0,0 STARLINK-5637,1 55432U 23014AT  23179.73724237  .00000140  00000-0  19538-4 0  9991,2 55432  70.0003  67.8206 0003009 269.8975  90.1839 14.98326850 22592,6950.203,96.107,574.159,569.976,0.0
55432.0,STARLINK-5637,PAYLOAD,2023-06-29 19:19:46,14.98330144,0.0002977,70.0002,65.1269,266.7866,93.2952,1.2523e-05,5.6e-07,0.0,0 STARLINK-5637,1 55432U 23014AT  23180.80540043  .00000056  00000-0  12523-4 0  9995,2 55432  70.0002  65.1269 0002977 266.7866  93.2952 14.98330144 22758,6950.192,96.107,574.127,569.988,0.0
55432.0,STARLINK-5637,PAYLOAD,2023-07-01 01:46:20,14.98327611,0.0003056,70.0002,61.9284,266.9451,93.1359,-2.0852e-05,-3.42e-06,0.0,0 STARLINK-5637,1 55432U 23014AT  23182.07384309 -.00000342  00000-0 -20852-4 0  9991,2 55432  70.0002  61.9284 0003056 266.9451  93.1359 14.98327611 22946,6950.2,96.107,574.189,569.941,0.0
55432.0,STARLINK-5637,PAYLOAD,2023-07-02 01:48:20,14.98332365,0.0003121,70.0002,59.4038,267.3112,92.7689,7.8014e-06,0.0,0.0,0 STARLINK-5637,1 55432U 23014AT  23183.07523906  .00000000  00000-0  78014-5 0  9993,2 55432  70.0002  59.4038 0003121 267.3112  92.7689 14.98332365 23097,6950.186,96.107,574.22,569.881,0.0
55432.0,STARLINK-5637,PAYLOAD,2023-07-03 01:50:21,14.98333158,0.0003209,70.0,56.879,266.9574,93.1218,6.6235e-05,6.97e-06,0.0,0 STARLINK-5637,1 55432U 23014AT  23184.07663621  .00000697  00000-0  66235-4 0  9996,2 55432  70.0000  56.8790 0003209 266.9574  93.1218 14.98333158 23246,6950.183,96.107,574.278,569.818,0.0
55432.0,STARLINK-5637,PAYLOAD,2023-07-04 01:52:22,14.98333853,0.0003132,70.0001,54.3541,267.5306,92.5495,2.5313e-05,2.09e-06,0.0,0 STARLINK-5637,1 55432U 23014AT  23185.07803541  .00000209  00000-0  25313-4 0  9995,2 55432  70.0001  54.3541 0003132 267.5306  92.5495 14.98333853 23397,6950.181,96.107,574.223,569.869,0.0
55432.0,STARLINK-5637,PAYLOAD,2023-07-05 08:18:55,14.98328654,0.0003081,70.0002,51.1559,268.9423,91.1383,-4.4804e-05,-6.28e-06,0.0,0 STARLINK-5637,1 55432U 23014AT  23186.34647909 -.00000628  00000-0 -44804-4 0  9993,2 55432  70.0002  51.1559 0003081 268.9423  91.1383 14.98328654 23585,6950.197,96.107,574.203,569.921,0.0
55432.0,STARLINK-5637,PAYLOAD,2023-07-06 08:20:56,14.98318659,0.0002672,70.0,48.6319,269.4436,90.6417,-1.847e-05,-3.13e-06,0.0,0 STARLINK-5637,1 55432U 23014AT  23187.34787731 -.00000313  00000-0 -18470-4 0  9993,2 55432  70.0000  48.6319 0002672 269.4436  90.6417 14.98318659 23736,6950.228,96.108,573.95,570.236,0.0
55432.0,STARLINK-5637,PAYLOAD,2023-07-07 00:22:16,14.98327878,0.0003061,69.9999,46.9474,272.3717,87.7092,-5.3822e-05,-7.35e-06,0.0,0 STARLINK-5637,1 55432U 23014AT  23188.01547291 -.00000735  00000-0 -53822-4 0  9991,2 55432  69.9999  46.9474 0003061 272.3717  87.7092 14.98327878 23831,6950.199,96.107,574.192,569.937,0.0
55432.0,STARLINK-5637,PAYLOAD,2023-07-07 22:48:11,14.98202799,0.000162,69.9998,44.5907,262.8496,97.2479,0.0020416,0.0002427,0.0,0 STARLINK-5637,1 55432U 23014AT  23188.95013729  .00024270  00000-0  20416-2 0  9997,2 55432  69.9998  44.5907 0001620 262.8496  97.2479 14.98202799 23976,6950.586,96.115,573.577,571.325,0.0
55432.0,STARLINK-5637,PAYLOAD,2023-07-08 00:24:17,14.98353426,0.0003076,69.9999,44.4223,271.8562,88.2244,-0.00046939,-5.693e-05,0.0,0 STARLINK-5637,1 55432U 23014AT  23189.01686667 -.00005693  00000-0 -46939-3 0  9991,2 55432  69.9999  44.4223 0003076 271.8562  88.2244 14.98353426 23983,6950.12,96.105,574.123,569.848,0.0
55432.0,STARLINK-5637,PAYLOAD,2023-07-08 21:14:02,14.98326985,0.0003041,69.9998,42.234,275.354,84.7272,5.6309e-05,5.79e-06,0.0,0 STARLINK-5637,1 55432U 23014AT  23189.88475269  .00000579  00000-0  56309-4 0  9999,2 55432  69.9998  42.2340 0003041 275.3540  84.7272 14.98326985 24113,6950.202,96.107,574.181,569.954,0.0
55432.0,STARLINK-5637,PAYLOAD,2023-07-09 22:52:11,14.98327002,0.0003073,69.9999,39.5408,274.2622,85.8186,4.7667e-05,4.76e-06,0.0,0 STARLINK-5637,1 55432U 23014AT  23190.95291537  .00000476  00000-0  47667-4 0  9996,2 55432  69.9999  39.5408 0003073 274.2622  85.8186 14.98327002 24276,6950.202,96.107,574.203,569.931,0.0
55432.0,STARLINK-5637,PAYLOAD,2023-07-11 00:30:20,14.98333418,0.0003101,69.9999,36.8475,273.5995,86.4809,3.6137e-05,3.38e-06,0.0,0 STARLINK-5637,1 55432U 23014AT  23192.02107120  .00000338  00000-0  36137-4 0  9997,2 55432  69.9999  36.8475 0003101 273.5995  86.4809 14.98333418 24432,6950.182,96.107,574.203,569.892,0.0
55432.0,STARLINK-5637,PAYLOAD,2023-07-11 22:56:13,14.98327631,0.0003133,69.9999,34.4909,272.7756,87.3045,-1.6964e-05,-2.95e-06,0.0,0 STARLINK-5637,1 55432U 23014AT  23192.95571604 -.00000295  00000-0 -16964-4 0  9991,2 55432  69.9999  34.4909 0003133 272.7756  87.3045 14.98327631 24576,6950.2,96.107,574.243,569.888,0.0
55432.0,STARLINK-5637,PAYLOAD,2023-07-13 16:35:43,14.98329313,0.0003137,70.0002,30.114,269.9751,90.1049,4.1536e-06,-4.3e-07,0.0,0 STARLINK-5637,1 55432U 23014AT  23194.69147374 -.00000043  00000-0  41536-5 0  9991,2 55432  70.0002  30.1140 0003137 269.9751  90.1049 14.98329313 24835,6950.195,96.107,574.24,569.88,0.0
55432.0,STARLINK-5637,PAYLOAD,2023-07-14 16:37:43,14.98332798,0.0003196,70.0001,27.5894,270.4665,89.6128,4.0587e-05,3.91e-06,0.0,0 STARLINK-5637,1 55432U 23014AT  23195.69286998  .00000391  00000-0  40587-4 0  9997,2 55432  70.0001  27.5894 0003196 270.4665  89.6128 14.98332798 24984,6950.184,96.107,574.271,569.828,0.0
55432.0,STARLINK-5637,PAYLOAD,2023-07-15 16:39:45,14.98331336,0.0003161,70.0002,25.0643,271.8744,88.2053,-4.4732e-05,-6.27e-06,0.0,0 STARLINK-5637,1 55432U 23014AT  23196.69427143 -.00000627  00000-0 -44732-4 0  9997,2 55432  70.0002  25.0643 0003161 271.8744  88.2053 14.98331336 25132,6950.189,96.107,574.251,569.857,0.0
55432.0,STARLINK-5637,PAYLOAD,2023-07-16 18:17:54,14.98295506,0.0003214,70.0002,22.3714,266.9922,93.0869,0.00053594,6.302e-05,0.0,0 STARLINK-5637,1 55432U 23014AT  23197.76243846  .00006302  00000-0  53594-3 0  9991,2 55432  70.0002  22.3714 0003214 266.9922  93.0869 14.98295506 25297,6950.3,96.109,574.398,569.931,0.0
55432.0,STARLINK-5637,PAYLOAD,2023-07-16 23:06:18,14.98331465,0.0003162,70.0003,21.8666,270.8551,89.2246,-3.9225e-05,-5.61e-06,0.0,0 STARLINK-5637,1 55432U 23014AT  23197.96271099 -.00000561  00000-0 -39225-4 0  9993,2 55432  70.0003  21.8666 0003162 270.8551  89.2246 14.98331465 25327,6950.188,96.107,574.251,569.856,0.0
55432.0,STARLINK-5637,PAYLOAD,2023-07-17 23:08:18,14.9833475,0.0003221,70.0003,19.3413,270.3263,89.7527,6.3524e-05,6.65e-06,0.0,0 STARLINK-5637,1 55432U 23014AT  23198.96410529  .00000665  00000-0  63524-4 0  9999,2 55432  70.0003  19.3413 0003221 270.3263  89.7527 14.98334750 25473,6950.178,96.107,574.282,569.805,0.0
55432.0,STARLINK-5637,PAYLOAD,2023-07-18 13:33:31,14.98321643,0.0003327,70.0004,17.8256,268.9876,91.0902,6.9551e-05,7.37e-06,0.0,0 STARLINK-5637,1 55432U 23014AT  23199.56495306  .00000737  00000-0  69551-4 0  9998,2 55432  70.0004  17.8256 0003327 268.9876  91.0902 14.98321643 25562,6950.219,96.108,574.396,569.771,0.0
55432.0,STARLINK-5637,PAYLOAD,2023-07-18 21:34:12,14.98328335,0.0003071,70.0006,16.984,265.8646,94.2162,1.2462e-05,5.6e-07,0.0,0 STARLINK-5637,1 55432U 23014AT  23199.89875133  .00000056  00000-0  12462-4 0  9997,2 55432  70.0006  16.9840 0003071 265.8646  94.2162 14.98328335 25614,6950.198,96.107,574.197,569.929,0.0
55432.0,STARLINK-5637,PAYLOAD,2023-07-20 13:37:33,14.98334527,0.000329,70.0007,12.7772,269.5119,90.5663,6.3051e-05,6.59e-06,0.0,0 STARLINK-5637,1 55432U 23014AT  23201.56774651  .00000659  00000-0  63051-4 0  9997,2 55432  70.0007  12.7772 0003290 269.5119  90.5663 14.98334527 25864,6950.179,96.107,574.331,569.757,0.0
55432.0,STARLINK-5637,PAYLOAD,2023-07-21 10:27:18,14.98328018,0.0003159,70.0013,10.5895,271.8594,88.2203,3.7724e-05,3.57e-06,0.0,0 STARLINK-5637,1 55432U 23014AT  23202.43562927  .00000357  00000-0  37724-4 0  9998,2 55432  70.0013  10.5895 0003159 271.8594  88.2203 14.98328018 25996,6950.199,96.107,574.26,569.868,0.0
55432.0,STARLINK-5637,PAYLOAD,2023-07-24 10:33:21,14.98330279,0.0003433,70.0008,3.0138,271.1315,88.945,2.9157e-05,2.55e-06,0.0,0 STARLINK-5637,1 55432U 23014AT  23205.43982794  .00000255  00000-0  29157-4 0  9997,2 55432  70.0008   3.0138 0003433 271.1315  88.9450 14.98330279 27384,6950.192,96.107,574.443,569.671,0.0
55432.0,STARLINK-5637,PAYLOAD,2023-07-25 12:11:30,14.98329465,0.0003506,70.0003,0.3216,271.1385,88.9372,1.31e-05,6.3e-07,0.0,0 STARLINK-5637,1 55432U 23014AT  23206.50798887  .00000063  00000-0  13100-4 0  9992,2 55432  70.0003   0.3216 0003506 271.1385  88.9372 14.98329465 27540,6950.195,96.107,574.496,569.623,0.0
